[{"OBJECT_NAME":"HERMES-3","OBJECT_ID":"2025-052BR","EPOCH":"2026-03-09T22:30:01.073952","MEAN_MOTION":15.30039786,"ECCENTRICITY":0.00079928,"INCLINATION":97.3987,"RA_OF_ASC_NODE":324.6131,"ARG_OF_PERICENTER":112.9583,"MEAN_ANOMALY":247.2502,"EPHEMERIS_TYPE":0,"CLASSIFICATION_TYPE":"U","NORAD_CAT_ID":63835,"ELEMENT_SET_NO":999,"REV_AT_EPOCH":5486,"BSTAR":0.0006995793,"MEAN_MOTION_DOT":0.00020316,"MEAN_MOTION_DDOT":0},{"OBJECT_NAME":"STARLINK-36098","OBJECT_ID":"2025-278AB","EPOCH":"2026-03-09T11:49:30.245088","MEAN_MOTION":15.27601999,"ECCENTRICITY":9.493e-5,"INCLINATION":42.9988,"RA_OF_ASC_NODE":115.068,"ARG_OF_PERICENTER":16.3648,"MEAN_ANOMALY":343.7234,"EPHEMERIS_TYPE":0,"CLASSIFICATION_TYPE":"U","NORAD_CAT_ID":66816,"ELEMENT_SET_NO":999,"REV_AT_EPOCH":1518,"BSTAR":0.0013487873,"MEAN_MOTION_DOT":0.00037065,"MEAN_MOTION_DDOT":0}]
